[
    {
        "Altitude(m)": 604969.089026302,
        "Argument of Periapsis(deg)": 0.0,
        "Eccentricity": 0.0,
        "Inclination(deg)": 60.0,
        "Latitude(deg)": -0.09256879801250809,
        "Longitude(deg)": 144.9775274956542,
        "Mean Anomaly(deg)": 0.0,
        "RAAN(deg)": 245.0,
        "Satellite Name": "Test1 1078",
        "Satellite Number": 1078,
        "Semi-Major Axis(m)": 6980739.136638005,
        "Time(s)": 0
    },
    {
        "Altitude(m)": 604900.0291629443,
        "Argument of Periapsis(deg)": 0.00010418945913296404,
        "Eccentricity": 0.0,
        "Inclination(deg)": 60.0,
        "Latitude(deg)": 0.44785677584406425,
        "Longitude(deg)": 145.24565116601352,
        "Mean Anomaly(deg)": 0.620106145461853,
        "RAAN(deg)": 244.99957995086027,
        "Satellite Name": "Test1 1078",
        "Satellite Number": 1078,
        "Semi-Major Axis(m)": 6980739.136638005,
        "Time(s)": 10
    }
]